[{"OBJECT_NAME":"TIANMU-1 07","OBJECT_ID":"2023-101A","EPOCH":"2026-03-06T13:47:20.454720","MEAN_MOTION":15.29118809,"ECCENTRICITY":0.00046097,"INCLINATION":97.2728,"RA_OF_ASC_NODE":118.5929,"ARG_OF_PERICENTER":142.4105,"MEAN_ANOMALY":217.7458,"EPHEMERIS_TYPE":0,"CLASSIFICATION_TYPE":"U","NORAD_CAT_ID":57399,"ELEMENT_SET_NO":999,"REV_AT_EPOCH":14596,"BSTAR":0.00029794732,"MEAN_MOTION_DOT":8.352e-5,"MEAN_MOTION_DDOT":0},{"OBJECT_NAME":"STARLINK-32192","OBJECT_ID":"2024-133R","EPOCH":"2026-03-09T22:29:05.688960","MEAN_MOTION":15.3018994,"ECCENTRICITY":0.00012225,"INCLINATION":53.1596,"RA_OF_ASC_NODE":295.5274,"ARG_OF_PERICENTER":95.0078,"MEAN_ANOMALY":265.1062,"EPHEMERIS_TYPE":0,"CLASSIFICATION_TYPE":"U","NORAD_CAT_ID":60316,"ELEMENT_SET_NO":999,"REV_AT_EPOCH":9177,"BSTAR":2.3043628e-5,"MEAN_MOTION_DOT":3.23e-6,"MEAN_MOTION_DDOT":0}]
